{"version": 0.6, "generator": "Overpass API 0.7.56.7 b85c4387", "osm3s": {"timestamp_osm_base": "2020-12-21T17:50:02Z", "timestamp_areas_base": "2020-12-21T17:25:02Z", "copyright": "The data included in this document is from www.openstreetmap.org. The data is made available under ODbL."}, "elements": [{"type": "node", "id": 18063533, "lat": 43.6534817, "lon": -79.3839347, "tags": {"name": "Toronto", "place": "city", "population": "2731571", "population:date": "2016"}}, {"type": "node", "id": 18886011, "lat": 45.421106, "lon": -75.690308, "tags": {"admin_level": "2", "capital": "yes", "capital_ISO3166-1": "yes", "name": "Ottawa", "name:am": "\u12a6\u1273\u12cb", "name:ar": "\u0623\u0648\u062a\u0627\u0648\u0627", "name:av": "\u041e\u0442\u0442\u0430\u0432\u0430", "name:az": "Ottava", "name:be": "\u0410\u0442\u0430\u0432\u0430", "name:be-tarask": "\u0410\u0442\u0430\u0432\u0430", "name:bg": "\u041e\u0442\u0430\u0432\u0430", "name:bn": "\u0985\u099f\u09cb\u09af\u09bc\u09be", "name:bo": "\u0f68\u0f7c\u0f0b\u0f4f\u0f0b\u0f5d\u0f0d", "name:chr": "\u13a0\u13d4\u13e9, \u13a8\u13be\u13d3", "name:ckb": "\u0626\u06c6\u062a\u0627\u0648\u0627", "name:cv": "\u041e\u0442\u0442\u0430\u0432\u0430", "name:de": "Ottawa", "name:el": "\u039f\u03c4\u03c4\u03ac\u03b2\u03b1", "name:en": "Ottawa", "name:eo": "Otavo", "name:es": "Ottawa", "name:fa": "\u0627\u062a\u0627\u0648\u0627", "name:fr": "Ottawa", "name:gl": "Otava - Ottawa", "name:he": "\u05d0\u05d5\u05d8\u05d5\u05d5\u05d4", "name:ht": "Otawa", "name:hu": "Ottawa", "name:hy": "\u0555\u057f\u057f\u0561\u057e\u0561", "name:is": "Ottawa", "name:iu": "\u140a\u1450\u155a", "name:iu-Latn": "atavaa", "name:ja": "\u30aa\u30bf\u30ef", "name:ka": "\u10dd\u10e2\u10d0\u10d5\u10d0", "name:kk": "\u041e\u0442\u0442\u0430\u0432\u0430", "name:kn": "\u0c86\u0c9f\u0ccd\u0c9f\u0cbe\u0cb5\u0cbe", "name:ko": "\uc624\ud0c0\uc640", "name:ku": "Ottawa", "name:la": "Ottava", "name:lt": "Otava", "name:lv": "Otava", "name:mk": "\u041e\u0442\u0430\u0432\u0430", "name:ml": "\u0d13\u0d1f\u0d4d\u0d1f\u0d35", "name:mn": "\u041e\u0442\u0442\u0430\u0432\u0430", "name:mr": "\u0913\u091f\u093e\u0935\u093e", "name:mzn": "\u0627\u0648\u062a\u0622\u0648\u0622", "name:nah": "Ottahua", "name:oc": "Ottawa", "name:os": "\u041e\u0442\u0442\u0430\u0432\u00e6", "name:pa": "\u0a13\u0a1f\u0a3e\u0a35\u0a3e", "name:pl": "Ottawa", "name:pnb": "\u0627\u0679\u0627\u0648\u06c1", "name:ru": "\u041e\u0442\u0442\u0430\u0432\u0430", "name:sah": "\u041e\u0442\u0442\u0430\u0432\u0430", "name:sr": "\u041e\u0442\u0430\u0432\u0430", "name:sv": "Ottawa", "name:ta": "\u0b92\u0b9f\u0bcd\u0b9f\u0bbe\u0bb5\u0bbe", "name:th": "\u0e2d\u0e2d\u0e15\u0e15\u0e32\u0e27\u0e32", "name:uk": "\u041e\u0442\u0442\u0430\u0432\u0430", "name:ur": "\u0627\u0648\u0679\u0627\u0648\u0627", "name:uz": "Ottava", "name:yi": "\u05d0\u05d8\u05d0\u05d5\u05d5\u05d0", "name:yue": "\u6e25\u592a\u83ef", "name:zh": "\u6e25\u592a\u83ef", "place": "city", "population": "934243", "population:date": "2011", "source:name:oc": "Lo Congr\u00e8s", "website": "http://ottawa.ca", "wikidata": "Q1930", "wikipedia": "en:Ottawa"}}, {"type": "node", "id": 18996031, "lat": 43.2560802, "lon": -79.8728583, "tags": {"name": "Hamilton", "place": "city"}}, {"type": "node", "id": 18998251, "lat": 43.3600536, "lon": -80.3123023, "tags": {"name": "Cambridge", "name:ru": "\u041a\u0435\u0439\u043c\u0431\u0440\u0438\u0434\u0436", "place": "city", "population": "129920", "wikidata": "Q1028279", "wikipedia": "en:Cambridge, Ontario"}}, {"type": "node", "id": 19188467, "lat": 48.406414, "lon": -89.259796, "tags": {"name": "Thunder Bay", "name:en": "Thunder Bay", "name:ru": "\u0422\u0430\u043d\u0434\u0435\u0440-\u0411\u0435\u0439", "name:uk": "\u0422\u0430\u043d\u0434\u0435\u0440-\u0411\u0435\u0439", "place": "city", "population": "108359", "wikidata": "Q34116", "wikipedia": "en:Thunder Bay"}}, {"type": "node", "id": 21542876, "lat": 44.1633264, "lon": -77.3852556, "tags": {"name": "Belleville", "name:en": "Belleville", "name:ru": "\u0411\u0435\u043b\u044c\u0432\u0438\u043b\u044c", "name:uk": "\u0411\u0435\u043b\u044c\u0432\u0456\u043b\u044c", "place": "city", "wikidata": "Q34227", "wikipedia": "en:Belleville, Ontario"}}, {"type": "node", "id": 21588608, "lat": 42.9746137, "lon": -82.4065585, "tags": {"name": "Sarnia", "name:ar": "\u0633\u0627\u0631\u0646\u064a\u0627", "place": "city", "population": "72366", "source:population": "Statistics Canada 2011", "website": "http://www.city.sarnia.on.ca/", "wikidata": "Q34106", "wikipedia": "en:Sarnia"}}, {"type": "node", "id": 21596054, "lat": 44.3048009, "lon": -78.3199496, "tags": {"name": "Peterborough", "name:en": "Peterborough", "name:ru": "\u041f\u0438\u0442\u0435\u0440\u0431\u043e\u0440\u043e", "name:uk": "\u041f\u0456\u0442\u0435\u0440\u0431\u043e\u0440\u043e", "place": "city", "wikidata": "Q776930", "wikipedia": "en:Peterborough, Ontario"}}, {"type": "node", "id": 26235714, "lat": 43.1065603, "lon": -79.0639039, "tags": {"name": "Niagara Falls", "name:en": "Niagara Falls", "name:ru": "\u041d\u0438\u0430\u0433\u0430\u0440\u0430-\u0424\u043e\u043b\u0441", "name:uk": "\u041d\u0456\u0430\u0433\u0430\u0440\u0430-\u0424\u043e\u043b\u043b\u0441", "place": "city", "population": "93000", "wikidata": "Q274120"}}, {"type": "node", "id": 26348017, "lat": 43.1579812, "lon": -79.2441003, "tags": {"name": "St. Catharines", "place": "city", "population": "133113", "wikidata": "Q126805", "wikipedia": "en:St. Catharines"}}, {"type": "node", "id": 34600120, "lat": 44.5895925, "lon": -75.6843332, "tags": {"name": "Brockville", "name:en": "Brockville", "name:ru": "\u0411\u0440\u043e\u043a\u0432\u0438\u043b\u043b", "name:uk": "\u0411\u0440\u043e\u043a\u0432\u0456\u043b\u044c", "place": "city", "population": "21870", "wikidata": "Q34047", "wikipedia": "en:Brockville"}}, {"type": "node", "id": 36576733, "lat": 43.5460516, "lon": -80.2493276, "tags": {"contact:facebook": "https://www.facebook.com/cityofguelph", "contact:twitter": "https://twitter.com/cityofguelph", "ele": "338", "image": "File:Guelph Downtown Aerial.jpg", "name": "Guelph", "place": "city", "population": "131794", "website": "https://guelph.ca/", "wikidata": "Q504114", "wikimedia_commons": "Category:Guelph", "wikipedia": "en:Guelph"}}, {"type": "node", "id": 61097209, "lat": 44.6092059, "lon": -79.4175587, "tags": {"name": "Orillia", "name:en": "Orillia", "name:ru": "\u041e\u0440\u0438\u043b\u043b\u0438\u044f", "name:uk": "\u041e\u0440\u0456\u043b\u043b\u0456\u044f", "place": "city", "population": "30546", "wikidata": "Q2373358", "wikipedia": "en:Orillia"}}, {"type": "node", "id": 68674508, "lat": 44.5678105, "lon": -80.9430094, "tags": {"name": "Owen Sound", "place": "city", "population": "21688", "wikidata": "Q1017735", "wikipedia": "en:Owen Sound"}}, {"type": "node", "id": 91705556, "lat": 45.8260909, "lon": -77.113541, "tags": {"name": "Pembroke", "place": "city", "population": "16146", "wikidata": "Q1075086", "wikipedia": "en:Pembroke, Ontario"}}, {"type": "node", "id": 107364606, "lat": 49.785698, "lon": -92.835846, "tags": {"name": "Dryden", "name:en": "Dryden", "name:ru": "\u0414\u0440\u0430\u0439\u0434\u0435\u043d", "name:uk": "\u0414\u0440\u0430\u0439\u0434\u0435\u043d", "place": "city", "population": "7617", "population:date": "2011", "population_precision": "1", "source": "gns_ca", "source:population": "Statistics Canada 2011 Census", "website": "http://www.dryden.ca", "wikidata": "Q3040214", "wikipedia": "en:Dryden, Ontario"}}, {"type": "node", "id": 156782658, "lat": 43.3248924, "lon": -79.7966835, "tags": {"name": "Burlington", "name:ckb": "\u0628\u0648\u0631\u0644\u06cc\u0646\u06af\u062a\u06c6\u0646", "place": "city", "population": "160000", "wikidata": "Q34218", "wikipedia": "en:Burlington, Ontario"}}, {"type": "node", "id": 156801478, "lat": 43.6858146, "lon": -79.7599337, "tags": {"name": "Brampton", "place": "city", "population": "593638", "wikidata": "Q44198", "wikipedia": "en:Brampton"}}, {"type": "node", "id": 156801489, "lat": 43.5896231, "lon": -79.6443879, "tags": {"name": "Mississauga", "name:ckb": "\u0645\u06cc\u0633\u06cc\u0633\u0627\u06af\u0627", "place": "city", "population": "721599", "short_name": "Ont.", "wikidata": "Q50816", "wikipedia": "en:Mississauga"}}, {"type": "node", "id": 209200736, "lat": 43.1408157, "lon": -80.2631733, "tags": {"name": "Brantford", "place": "city", "population": "97496", "wikidata": "Q34180", "wikipedia": "en:Brantford"}}, {"type": "node", "id": 240997338, "lat": 43.1301111, "lon": -80.7562977, "tags": {"name": "Woodstock", "place": "city", "population": "40404", "population:date": "2016", "source:population": "Statistics Canada, 2016 Census of Population", "wikidata": "Q1642364", "wikipedia": "en:Woodstock, Ontario"}}, {"type": "node", "id": 248829055, "lat": 43.4652699, "lon": -80.5222961, "tags": {"canvec:UUID": "c30d580fcbae4a69a6d01461f23cbbac", "name": "Waterloo", "name:ar": "\u0648\u0627\u062a\u0631\u0644\u0648", "name:de": "Waterloo", "name:fr": "Waterloo", "name:nl": "Waterloo", "name:ru": "\u0412\u0430\u0442\u0435\u0440\u043b\u043e\u043e", "name:zh": "\u6ed1\u94c1\u5362", "place": "city", "population": "104986", "source": "CanVec_Import_2009", "wikidata": "Q639408", "wikipedia": "en:Waterloo, Ontario"}}, {"type": "node", "id": 253421090, "lat": 42.317099, "lon": -83.0353434, "tags": {"name": "Windsor", "name:he": "\u05d5\u05d9\u05e0\u05d3\u05d6\u05d5\u05e8", "name:ru": "\u0423\u0438\u043d\u0441\u043e\u0440", "place": "city", "population": "217188", "source": "http://www.citywindsor.ca/002358.asp#table2", "wikidata": "Q182625", "wikipedia": "en:Windsor, Ontario"}}, {"type": "node", "id": 254447287, "lat": 42.4057219, "lon": -82.1853837, "tags": {"name": "Chatham", "place": "city", "population": "103671", "website": "http://www.chatham-kent.ca", "wikidata": "Q5087616", "wikipedia": "en:Chatham, Ontario"}}, {"type": "node", "id": 260034778, "lat": 43.451291, "lon": -80.4927815, "tags": {"canvec:UUID": "bde7e26d88cb41fe9fc6e1a2d7f53f03", "name": "Kitchener", "name:de": "Kitchener", "name:en": "Kitchener", "name:fr": "Kitchener", "name:ko": "\ud0a4\uce58\ub108", "name:ru": "\u041a\u0438\u0442\u0447\u0435\u043d\u0435\u0440", "name:uk": "\u041a\u0456\u0447\u0435\u043d\u0435\u0440", "name:zh": "\u57fa\u79e6\u62ff", "place": "city", "population": "233222", "source": "CanVec_Import_2009", "wikidata": "Q200166", "wikipedia": "en:Kitchener, Ontario"}}, {"type": "node", "id": 278031207, "lat": 43.8975558, "lon": -78.8635324, "tags": {"name": "Oshawa", "place": "city", "population": "159458", "wikidata": "Q211867", "wikipedia": "en:Oshawa"}}, {"type": "node", "id": 286894978, "lat": 45.0184417, "lon": -74.728703, "tags": {"admin_level": "8", "name": "Cornwall", "name:en": "Cornwall", "name:uk": "\u041a\u043e\u0440\u043d\u0432\u043e\u043b", "place": "city", "population": "46867", "website": "http://www.cornwall.ca", "wikidata": "Q956690", "wikipedia": "en:Cornwall, Ontario"}}, {"type": "node", "id": 319266313, "lat": 43.7941544, "lon": -79.5268023, "tags": {"name": "Vaughan", "place": "city", "population": "306233", "wikidata": "Q44013", "wikipedia": "en:Vaughan"}}, {"type": "node", "id": 443044779, "lat": 42.9922181, "lon": -79.2484192, "tags": {"name": "Welland", "place": "city", "population": "52293", "wikidata": "Q424773", "wikipedia": "en:Welland"}}, {"type": "node", "id": 469888902, "lat": 43.8505287, "lon": -79.0208814, "tags": {"name": "Ajax", "place": "city"}}, {"type": "node", "id": 479846228, "lat": 43.3700899, "lon": -80.9818016, "tags": {"canvec:UUID": "9813306f37f64e4d83c77a3b18d07954", "name": "Stratford", "name:ckb": "\u0633\u062a\u0631\u0627\u062a\u0641\u06c6\u0631\u062f", "name:fr": "Stratford", "place": "city", "population": "31465", "source": "CanVec_Import_2009", "wikidata": "Q740756", "wikipedia": "en:Stratford, Ontario"}}, {"type": "node", "id": 485248691, "lat": 42.9836747, "lon": -81.2496068, "tags": {"canvec:UUID": "91057811775844be917b61185934d25e", "name": "London", "name:ar": "\u0644\u0646\u062f\u0646", "name:en": "London", "name:fr": "London", "name:ko": "\ub7f0\ub358", "name:ru": "\u041b\u043e\u043d\u0434\u043e\u043d", "name:uk": "\u041b\u043e\u043d\u0434\u043e\u043d", "place": "city", "population": "383822", "source": "CanVec_Import_2009", "source:population": "Canada 2011 Census", "wikidata": "Q92561", "wikipedia": "de:London, Ontario"}}, {"type": "node", "id": 558715688, "lat": 43.835765, "lon": -79.090576, "tags": {"name": "Pickering", "name:fr": "Pickering", "place": "city", "population": "91771", "source": "CanVec_Import_2009", "wikidata": "Q386626"}}, {"type": "node", "id": 558748122, "lat": 43.447436, "lon": -79.666672, "tags": {"name": "Oakville", "place": "city", "wikidata": "Q424984"}}, {"type": "node", "id": 905015352, "lat": 43.87982, "lon": -78.9421751, "tags": {"name": "Whitby", "place": "city", "population": "128377", "source": "CanVec 6.0 - NRCan", "wikidata": "Q386338"}}, {"type": "node", "id": 927572560, "lat": 48.477473, "lon": -81.330414, "tags": {"name": "Timmins", "name:en": "Timmins", "name:ru": "\u0422\u0438\u043c\u043c\u0438\u043d\u0441", "name:uk": "\u0422\u0456\u043c\u043c\u0456\u043d\u0441", "place": "city", "population": "41788", "source": "NRCan-CanVec-10.0", "wikidata": "Q991310", "wikipedia": "en:Timmins"}}, {"type": "node", "id": 1410097893, "lat": 49.766215, "lon": -94.4893528, "tags": {"name": "Kenora", "name:en": "Kenora", "name:ru": "\u041a\u0435\u043d\u043e\u0440\u0430", "name:uk": "\u041a\u0435\u043d\u043e\u0440\u0430", "old_name": "Rat Portage", "old_name:uk": "\u0420\u0430\u0442 \u041f\u043e\u0440\u0442\u0430\u0436", "place": "city", "population": "15348", "population:date": "2011", "population_precision": "1", "source": "NRCan-CanVec-7.0", "source:population": "Statistics Canada 2011 Census", "wikidata": "Q993714", "wikipedia": "en:Kenora"}}, {"type": "node", "id": 1610810050, "lat": 42.779022, "lon": -81.1929882, "tags": {"name": "St. Thomas", "place": "city", "population": "41813", "start_date": "1810", "wikidata": "Q2078072"}}, {"type": "node", "id": 1621148113, "lat": 44.056258, "lon": -79.461708, "tags": {"name": "Newmarket", "place": "city", "wikidata": "Q52999", "wikipedia": "en:Newmarket, Ontario"}}, {"type": "node", "id": 1702057542, "lat": 43.8563707, "lon": -79.3376825, "tags": {"name": "Markham", "place": "city", "population": "328940", "wikidata": "Q44016", "wikipedia": "en:Markham, Ontario"}}, {"type": "node", "id": 1785895622, "lat": 46.49272, "lon": -80.991211, "tags": {"name": "Sudbury", "name:ckb": "\u0633\u06d5\u062f\u0628\u06ce\u0631\u06cc", "name:ru": "\u0411\u043e\u043b\u044c\u0448\u043e\u0439 \u0421\u0430\u0434\u0431\u0435\u0440\u0438", "name:uk": "\u0421\u0430\u0434\u0431\u0435\u0440\u0456", "official_name": "Greater Sudbury", "place": "city", "population": "161531", "source:population": "Canada 2016 Census", "website": "https://www.greatersudbury.ca/", "wikidata": "Q383434", "wikipedia": "en:Greater Sudbury"}}, {"type": "node", "id": 2026722938, "lat": 43.1249127, "lon": -79.2005935, "tags": {"name": "Thorold", "place": "city", "population": "18801", "wikidata": "Q448120", "wikipedia": "en:Thorold"}}, {"type": "node", "id": 2028337920, "lat": 47.512563, "lon": -79.675598, "tags": {"name": "Temiskaming Shores", "place": "city", "population": "10400", "wikidata": "Q1982768", "wikipedia": "en:Temiskaming Shores"}}, {"type": "node", "id": 2658461559, "lat": 46.373464, "lon": -82.652893, "tags": {"name": "Elliot Lake", "place": "city", "population": "11348", "source": "NRCan-CanVec-10.0", "wikidata": "Q2729034", "wikipedia": "en:Elliot Lake"}}, {"type": "node", "id": 2698992940, "lat": 46.52391, "lon": -84.320068, "tags": {"is_in": "Ontario Canada", "name": "Sault Ste. Marie", "name:de": "Sault Ste. Marie", "name:fr": "Sault-Sainte-Marie", "name:uk": "\u0421\u0443-\u0421\u0435\u043d-\u041c\u0430\u0440\u0456", "place": "city", "population": "75141", "source": "NRCan-CanVec-10.0", "wikidata": "Q463165", "wikipedia": "en:Sault Ste. Marie, Ontario"}}, {"type": "node", "id": 3128734246, "lat": 44.230687, "lon": -76.481323, "tags": {"name": "Kingston", "name:de": "Kingston", "name:en": "Kingston", "name:fr": "Kingston", "name:ru": "\u041a\u0438\u043d\u0433\u0441\u0442\u043e\u043d", "name:uk": "\u041a\u0456\u043d\u0433\u0441\u0442\u043e\u043d", "place": "city", "population": "123363", "wikidata": "Q202973", "wikipedia": "en:Kingston, Ontario"}}, {"type": "node", "id": 3792450377, "lat": 43.880078, "lon": -79.439392, "tags": {"name": "Richmond Hill", "place": "city"}}, {"type": "node", "id": 4771916237, "lat": 46.3092115, "lon": -79.4607617, "tags": {"name": "North Bay", "name:ckb": "\u0646\u06c6\u0631\u0633 \u0628\u06d5\u06cc", "place": "city", "population": "51553", "wikidata": "Q912253", "wikipedia": "en:North Bay, Ontario"}}, {"type": "node", "id": 6180141852, "lat": 44.3596825, "lon": -78.7421729, "tags": {"name": "Kawartha Lakes", "official_name": "City of Kawartha Lakes", "place": "city", "population": "75423", "population:date": "2016", "website": "https://www.kawarthalakes.ca/", "wikidata": "Q384755", "wikipedia": "en:Kawartha Lakes"}}, {"type": "node", "id": 6180141853, "lat": 44.0988246, "lon": -77.5748551, "tags": {"name": "Quinte West", "official_name": "City of Quinte West", "place": "city", "population": "43577", "population:date": "2016", "website": "http://www.city.quintewest.on.ca", "wikidata": "Q3276918", "wikipedia": "en:Quinte West"}}, {"type": "node", "id": 6182594237, "lat": 44.3893113, "lon": -79.6901736, "tags": {"name": "Barrie", "name:en": "Barrie", "name:ru": "\u0411\u0430\u0440\u0440\u0438", "name:uk": "\u0411\u0435\u0440\u0440\u0456", "official_name": "City of Barrie", "place": "city", "population": "197059", "wikidata": "Q34183", "wikipedia": "en:Barrie"}}, {"type": "area", "id": 3600068841, "tags": {"ISO3166-2": "CA-ON", "admin_level": "4", "border_type": "provincial", "boundary": "administrative", "name": "Ontario", "name:am": "\u12a6\u1295\u1274\u122a\u12ee", "name:ar": "\u0623\u0648\u0646\u062a\u0627\u0631\u064a\u0648", "name:arc": "\u0710\u0718\u0722\u071b\u0710\u072a\u071d\u0718", "name:be": "\u0410\u043d\u0442\u0430\u0440\u044b\u0451", "name:bg": "\u041e\u043d\u0442\u0430\u0440\u0438\u043e", "name:bn": "\u0985\u09a8\u09cd\u099f\u09be\u09b0\u09bf\u0993", "name:ca": "Ont\u00e0rio", "name:ckb": "\u0626\u06c6\u0646\u062a\u0627\u0631\u06cc\u06c6", "name:cr": "\u1405\u1423\u144c\u1546\u1405", "name:cs": "Ontario", "name:el": "\u039f\u03bd\u03c4\u03ac\u03c1\u03b9\u03bf", "name:en": "Ontario", "name:eo": "Ontario", "name:fa": "\u0627\u0646\u062a\u0627\u0631\u06cc\u0648", "name:gu": "\u0a91\u0aa8\u0acd\u0a9f\u0ac7\u0ab0\u0abf\u0aaf\u0acb", "name:he": "\u05d0\u05d5\u05e0\u05d8\u05e8\u05d9\u05d5", "name:hi": "\u0913\u0928\u094d\u091f\u093e\u0930\u093f\u092f\u094b", "name:hy": "\u0555\u0576\u057f\u0561\u0580\u056b\u0578 (\u0576\u0561\u0570\u0561\u0576\u0563)", "name:iu": "\u140b\u14d0\u144e\u1405\u1546\u152a", "name:ja": "\u30aa\u30f3\u30bf\u30ea\u30aa\u5dde", "name:ka": "\u10dd\u10dc\u10e2\u10d0\u10e0\u10d8\u10dd", "name:ko": "\uc628\ud0c0\ub9ac\uc624", "name:ku": "Ontaryo", "name:lt": "Ontarijas", "name:lv": "Ont\u0101rio", "name:mk": "\u041e\u043d\u0442\u0430\u0440\u0438\u043e", "name:ml": "\u0d12\u0d23\u0d4d\u0d1f\u0d3e\u0d31\u0d3f\u0d2f\u0d4b", "name:mn": "\u041e\u043d\u0442\u0430\u0440\u0438\u043e", "name:mr": "\u0911\u0928\u094d\u091f\u093e\u0930\u093f\u092f\u094b", "name:oc": "Ont\u00e0rio", "name:os": "\u041e\u043d\u0442\u0430\u0440\u0438\u043e", "name:pa": "\u0a09\u0a02\u0a1f\u0a3e\u0a30\u0a40\u0a13", "name:pt": "Ont\u00e1rio", "name:qu": "Ontario pruwinsya", "name:ru": "\u041e\u043d\u0442\u0430\u0440\u0438\u043e", "name:sk": "Ont\u00e1rio", "name:sr": "\u041e\u043d\u0442\u0430\u0440\u0438\u043e", "name:ta": "\u0b92\u0ba9\u0bcd\u0b9f\u0bbe\u0bb0\u0bbf\u0baf\u0bcb", "name:te": "\u0c05\u0c02\u0c1f\u0c3e\u0c30\u0c3f\u0c2f\u0c4b", "name:th": "\u0e23\u0e31\u0e10\u0e2d\u0e2d\u0e19\u0e41\u0e17\u0e23\u0e35\u0e42\u0e2d", "name:tl": "Ontario", "name:tt": "\u041e\u043d\u0442\u0430\u0440\u0438\u043e", "name:uk": "\u041e\u043d\u0442\u0430\u0440\u0456\u043e", "name:ur": "\u0627\u0646\u0679\u0627\u0631\u06cc\u0648", "name:uz": "Ontario", "name:yi": "\u05d0\u05e0\u05d8\u05e2\u05e8\u05d9\u05d0", "name:zh": "\u5b89\u5927\u7565", "ref": "ON", "state_code": "ON", "type": "boundary", "wikidata": "Q1904", "wikipedia": "en:Ontario"}}]}